SPOT 6                  
1 38755U 12047A   26204.28263868  .00000004  00000+0  10786-4 0  9998
2 38755  98.2100 271.1653 0001148  95.0499 265.0831 14.58541059738314
SPOT 7                  
1 40053U 14034A   26204.27493215  .00000180  00000+0  45943-4 0  9998
2 40053  98.0608 265.8333 0001682  95.1598 264.9795 14.60985190642400
