{"fetched_at":"2026-07-23T17:55:54.193Z","source":"https://celestrak.org/NORAD/elements/gp.php?NAME=SPOT&FORMAT=JSON","constellation":"spot","records":[{"OBJECT_NAME":"SPOT 6","OBJECT_ID":"2012-047A","EPOCH":"2026-07-23T06:46:59.981952","CLASSIFICATION_TYPE":"U","MEAN_MOTION":14.58541059,"ECCENTRICITY":0.00011486,"INCLINATION":98.21,"RA_OF_ASC_NODE":271.1653,"ARG_OF_PERICENTER":95.0499,"MEAN_ANOMALY":265.0831,"EPHEMERIS_TYPE":0,"NORAD_CAT_ID":38755,"ELEMENT_SET_NO":999,"REV_AT_EPOCH":73831,"BSTAR":0.00001078596,"MEAN_MOTION_DOT":4e-8,"MEAN_MOTION_DDOT":0},{"OBJECT_NAME":"SPOT 7","OBJECT_ID":"2014-034A","EPOCH":"2026-07-23T06:35:54.137760","CLASSIFICATION_TYPE":"U","MEAN_MOTION":14.6098519,"ECCENTRICITY":0.00016828,"INCLINATION":98.0608,"RA_OF_ASC_NODE":265.8333,"ARG_OF_PERICENTER":95.1598,"MEAN_ANOMALY":264.9795,"EPHEMERIS_TYPE":0,"NORAD_CAT_ID":40053,"ELEMENT_SET_NO":999,"REV_AT_EPOCH":64240,"BSTAR":0.000045943301,"MEAN_MOTION_DOT":0.0000018,"MEAN_MOTION_DDOT":0}]}
